[{"OBJECT_NAME":"COSMOS 2468 (RODNIK-S 3)","OBJECT_ID":"2010-043C","EPOCH":"2026-03-09T15:59:43.090944","MEAN_MOTION":12.43743636,"ECCENTRICITY":0.0015359,"INCLINATION":82.4596,"RA_OF_ASC_NODE":124.5666,"ARG_OF_PERICENTER":161.1677,"MEAN_ANOMALY":314.4343,"EPHEMERIS_TYPE":0,"CLASSIFICATION_TYPE":"U","NORAD_CAT_ID":37154,"ELEMENT_SET_NO":999,"REV_AT_EPOCH":70350,"BSTAR":-6.3207e-6,"MEAN_MOTION_DOT":9.0e-8,"MEAN_MOTION_DDOT":0},{"OBJECT_NAME":"COSMOS 2189","OBJECT_ID":"1992-030C","EPOCH":"2026-03-09T17:23:45.063168","MEAN_MOTION":12.54027565,"ECCENTRICITY":0.00407977,"INCLINATION":74.0026,"RA_OF_ASC_NODE":296.2008,"ARG_OF_PERICENTER":191.4114,"MEAN_ANOMALY":236.2386,"EPHEMERIS_TYPE":0,"CLASSIFICATION_TYPE":"U","NORAD_CAT_ID":21978,"ELEMENT_SET_NO":999,"REV_AT_EPOCH":54567,"BSTAR":3.9711031e-5,"MEAN_MOTION_DOT":-1.0e-7,"MEAN_MOTION_DDOT":0}]
